JY1SAT (JO-97)          
1 43803U 18099AX  26068.68634132  .00017774  00000+0  60804-3 0  9996
2 43803  97.4249 131.3625 0004723 256.6795 103.3919 15.30302628398390
STARLINK-35812          
1 66574U 25268T   26068.14199134  .00029196  00000+0  10661-2 0  9997
2 66574  42.9983 350.3598 0001275 269.6091  90.4615 15.27584612 17875
